start=new Date('2023-01-02T00:00:00.000Z').valueOf();
sats=[{"SEMIMAJOR_AXIS":"6925.408","PERIOD":"95.593","PERIAPSIS":"546.232","EPHEMERIS_TYPE":"0","ELEMENT_SET_NO":"999","MEAN_ELEMENT_THEORY":"SGP4","MEAN_MOTION_DOT":"-0.00004381","NORAD_CAT_ID":"46726","CENTER_NAME":"EARTH","CLASSIFICATION_TYPE":"U","RCS_SIZE":"LARGE","REF_FRAME":"TEME","APOAPSIS":"548.314","FILE":"3728968","ARG_OF_PERICENTER":"60.5748","MEAN_MOTION":"15.06380642","REV_AT_EPOCH":"12234","ECCENTRICITY":"0.00015030","OBJECT_ID":"2020-073BJ","MEAN_ANOMALY":"299.5390","GP_ID":"221993511","OBJECT_TYPE":"PAYLOAD","COUNTRY_CODE":"US","BSTAR":"-0.00027552000000","TLE_LINE1":"1 46726U 20073BJ  23001.87171580 -.00004381  00000-0 -27552-3 0  9992","DECAY_DATE":null,"SITE":"AFETR","MEAN_MOTION_DDOT":"0.0000000000000","EPOCH":"2023-01-01T20:55:16.245120","TIME_SYSTEM":"UTC","OBJECT_NAME":"STARLINK-1829","RA_OF_ASC_NODE":"61.7059","INCLINATION":"53.0553","LAUNCH_DATE":"2020-10-18","TLE_LINE2":"2 46726  53.0553  61.7059 0001503  60.5748 299.5390 15.06380642122349"},{"RCS_SIZE":"LARGE","REF_FRAME":"TEME","FILE":"3728952","APOAPSIS":"548.883","MEAN_MOTION":"15.06398118","ARG_OF_PERICENTER":"34.9463","SEMIMAJOR_AXIS":"6925.354","PERIOD":"95.592","EPHEMERIS_TYPE":"0","PERIAPSIS":"545.555","ELEMENT_SET_NO":"999","MEAN_MOTION_DOT":"0.00000613","MEAN_ELEMENT_THEORY":"SGP4","NORAD_CAT_ID":"46727","CENTER_NAME":"EARTH","CLASSIFICATION_TYPE":"U","TIME_SYSTEM":"UTC","RA_OF_ASC_NODE":"36.9185","OBJECT_NAME":"STARLINK-1830","INCLINATION":"53.0539","LAUNCH_DATE":"2020-10-18","TLE_LINE2":"2 46727  53.0539  36.9185 0002403  34.9463 325.1683 15.06398118122211","REV_AT_EPOCH":"12221","OBJECT_ID":"2020-073BK","ECCENTRICITY":"0.00024030","GP_ID":"221987171","OBJECT_TYPE":"PAYLOAD","MEAN_ANOMALY":"325.1683","COUNTRY_CODE":"US","TLE_LINE1":"1 46727U 20073BK  23001.82887892  .00000613  00000-0  60094-4 0  9999","SITE":"AFETR","DECAY_DATE":null,"BSTAR":"0.00006009400000","EPOCH":"2023-01-01T19:53:35.138688","MEAN_MOTION_DDOT":"0.0000000000000"},{"TLE_LINE2":"2 46740  53.0528 147.3815 0001357  69.7668 290.3467 15.06385338121314","LAUNCH_DATE":"2020-10-24","OBJECT_NAME":"STARLINK-1848","RA_OF_ASC_NODE":"147.3815","INCLINATION":"53.0528","TIME_SYSTEM":"UTC","MEAN_MOTION_DDOT":"0.0000000000000","EPOCH":"2023-01-01T17:20:59.033472","TLE_LINE1":"1 46740U 20074B   23001.72290548 -.00001924  00000-0 -11032-3 0  9995","DECAY_DATE":null,"SITE":"AFETR","BSTAR":"-0.00011032000000","MEAN_ANOMALY":"290.3467","OBJECT_TYPE":"PAYLOAD","GP_ID":"221986922","COUNTRY_CODE":"US","REV_AT_EPOCH":"12131","ECCENTRICITY":"0.00013570","OBJECT_ID":"2020-074B","APOAPSIS":"548.198","FILE":"3728952","ARG_OF_PERICENTER":"69.7668","MEAN_MOTION":"15.06385338","REF_FRAME":"TEME","RCS_SIZE":"LARGE","NORAD_CAT_ID":"46740","CENTER_NAME":"EARTH","CLASSIFICATION_TYPE":"U","ELEMENT_SET_NO":"999","MEAN_ELEMENT_THEORY":"SGP4","MEAN_MOTION_DOT":"-0.00001924","PERIOD":"95.593","PERIAPSIS":"546.319","EPHEMERIS_TYPE":"0","SEMIMAJOR_AXIS":"6925.393"},{"TIME_SYSTEM":"UTC","INCLINATION":"53.0545","OBJECT_NAME":"STARLINK-1865","RA_OF_ASC_NODE":"142.6151","LAUNCH_DATE":"2020-10-24","TLE_LINE2":"2 46741  53.0545 142.6151 0001662  50.5694 309.5442 15.06381689121389","ECCENTRICITY":"0.00016620","OBJECT_ID":"2020-074C","REV_AT_EPOCH":"12138","COUNTRY_CODE":"US","MEAN_ANOMALY":"309.5442","OBJECT_TYPE":"PAYLOAD","GP_ID":"221986170","TLE_LINE1":"1 46741U 20074C   23001.67361750 -.00002608  00000-0 -15634-3 0  9996","SITE":"AFETR","DECAY_DATE":null,"BSTAR":"-0.00015634000000","MEAN_MOTION_DDOT":"0.0000000000000","EPOCH":"2023-01-01T16:10:00.552000","RCS_SIZE":"LARGE","REF_FRAME":"TEME","ARG_OF_PERICENTER":"50.5694","MEAN_MOTION":"15.06381689","APOAPSIS":"548.421","FILE":"3728952","SEMIMAJOR_AXIS":"6925.405","EPHEMERIS_TYPE":"0","PERIAPSIS":"546.119","PERIOD":"95.593","MEAN_ELEMENT_THEORY":"SGP4","MEAN_MOTION_DOT":"-0.00002608","ELEMENT_SET_NO":"999","CLASSIFICATION_TYPE":"U","NORAD_CAT_ID":"46741","CENTER_NAME":"EARTH"},{"MEAN_MOTION":"15.56405466","ARG_OF_PERICENTER":"215.3312","FILE":"3729057","APOAPSIS":"398.641","REF_FRAME":"TEME","RCS_SIZE":"LARGE","CLASSIFICATION_TYPE":"U","NORAD_CAT_ID":"46742","CENTER_NAME":"EARTH","MEAN_MOTION_DOT":"0.00063282","MEAN_ELEMENT_THEORY":"SGP4","ELEMENT_SET_NO":"999","PERIAPSIS":"397.504","EPHEMERIS_TYPE":"0","PERIOD":"92.521","SEMIMAJOR_AXIS":"6776.207","TLE_LINE2":"2 46742  53.0520 108.1148 0000839 215.3312 144.7643 15.56405466121904","LAUNCH_DATE":"2020-10-24","INCLINATION":"53.0520","RA_OF_ASC_NODE":"108.1148","OBJECT_NAME":"STARLINK-1872","TIME_SYSTEM":"UTC","EPOCH":"2023-01-01T23:51:09.428832","MEAN_MOTION_DDOT":"0.0000000000000","TLE_LINE1":"1 46742U 20074D   23001.99385913  .00063282  00000-0  88007-3 0  9996","DECAY_DATE":null,"BSTAR":"0.00088007000000","SITE":"AFETR","COUNTRY_CODE":"US","GP_ID":"221995834","OBJECT_TYPE":"PAYLOAD","MEAN_ANOMALY":"144.7643","OBJECT_ID":"2020-074D","ECCENTRICITY":"0.00008390","REV_AT_EPOCH":"12190"},{"COUNTRY_CODE":"US","MEAN_ANOMALY":"283.0092","GP_ID":"221987172","OBJECT_TYPE":"PAYLOAD","ECCENTRICITY":"0.00012680","OBJECT_ID":"2020-074E","REV_AT_EPOCH":"12138","MEAN_MOTION_DDOT":"0.0000000000000","EPOCH":"2023-01-01T15:59:23.010720","TLE_LINE1":"1 46743U 20074E   23001.66623855 -.00000877  00000-0 -40033-4 0  9992","DECAY_DATE":null,"BSTAR":"-0.00004003300000","SITE":"AFETR","INCLINATION":"53.0542","OBJECT_NAME":"STARLINK-1892","RA_OF_ASC_NODE":"142.6245","TIME_SYSTEM":"UTC","TLE_LINE2":"2 46743  53.0542 142.6245 0001268  77.1039 283.0092 15.06389158121388","LAUNCH_DATE":"2020-10-24","PERIAPSIS":"546.369","EPHEMERIS_TYPE":"0","PERIOD":"95.593","SEMIMAJOR_AXIS":"6925.382","CLASSIFICATION_TYPE":"U","CENTER_NAME":"EARTH","NORAD_CAT_ID":"46743","MEAN_ELEMENT_THEORY":"SGP4","MEAN_MOTION_DOT":"-0.00000877","ELEMENT_SET_NO":"999","REF_FRAME":"TEME","RCS_SIZE":"LARGE","ARG_OF_PERICENTER":"77.1039","MEAN_MOTION":"15.06389158","APOAPSIS":"548.125","FILE":"3728952"},{"TIME_SYSTEM":"UTC","INCLINATION":"53.0533","OBJECT_NAME":"STARLINK-1894","RA_OF_ASC_NODE":"142.2526","LAUNCH_DATE":"2020-10-24","TLE_LINE2":"2 46744  53.0533 142.2526 0001542  50.5772 309.5354 15.06397175121395","ECCENTRICITY":"0.00015420","OBJECT_ID":"2020-074F","REV_AT_EPOCH":"12139","COUNTRY_CODE":"US","MEAN_ANOMALY":"309.5354","OBJECT_TYPE":"PAYLOAD","GP_ID":"221987422","TLE_LINE1":"1 46744U 20074F   23001.75006270 -.00000875  00000-0 -39844-4 0  9995","BSTAR":"-0.00003984400000","DECAY_DATE":null,"SITE":"AFETR","MEAN_MOTION_DDOT":"0.0000000000000","EPOCH":"2023-01-01T18:00:05.417280","RCS_SIZE":"LARGE","REF_FRAME":"TEME","ARG_OF_PERICENTER":"50.5772","MEAN_MOTION":"15.06397175","APOAPSIS":"548.290","FILE":"3728952","SEMIMAJOR_AXIS":"6925.357","PERIAPSIS":"546.154","EPHEMERIS_TYPE":"0","PERIOD":"95.592","MEAN_ELEMENT_THEORY":"SGP4","MEAN_MOTION_DOT":"-0.00000875","ELEMENT_SET_NO":"999","CLASSIFICATION_TYPE":"U","NORAD_CAT_ID":"46744","CENTER_NAME":"EARTH"},{"RCS_SIZE":"LARGE","REF_FRAME":"TEME","FILE":"3728952","APOAPSIS":"548.378","MEAN_MOTION":"15.06397531","ARG_OF_PERICENTER":"60.5378","SEMIMAJOR_AXIS":"6925.356","PERIOD":"95.592","EPHEMERIS_TYPE":"0","PERIAPSIS":"546.065","ELEMENT_SET_NO":"999","MEAN_MOTION_DOT":"0.00000842","MEAN_ELEMENT_THEORY":"SGP4","CENTER_NAME":"EARTH","NORAD_CAT_ID":"46746","CLASSIFICATION_TYPE":"U","TIME_SYSTEM":"UTC","RA_OF_ASC_NODE":"142.1909","OBJECT_NAME":"STARLINK-1905","INCLINATION":"53.0532","LAUNCH_DATE":"2020-10-24","TLE_LINE2":"2 46746  53.0532 142.1909 0001670  60.5378 299.5777 15.06397531121398","REV_AT_EPOCH":"12139","OBJECT_ID":"2020-074H","ECCENTRICITY":"0.00016700","GP_ID":"221985673","OBJECT_TYPE":"PAYLOAD","MEAN_ANOMALY":"299.5777","COUNTRY_CODE":"US","TLE_LINE1":"1 46746U 20074H   23001.76576255  .00000842  00000-0  75413-4 0  9997","DECAY_DATE":null,"SITE":"AFETR","BSTAR":"0.00007541300000","EPOCH":"2023-01-01T18:22:41.884320","MEAN_MOTION_DDOT":"0.0000000000000"},{"APOAPSIS":"548.154","FILE":"3728952","ARG_OF_PERICENTER":"77.1838","MEAN_MOTION":"15.06392221","RCS_SIZE":"LARGE","REF_FRAME":"TEME","ELEMENT_SET_NO":"999","MEAN_ELEMENT_THEORY":"SGP4","MEAN_MOTION_DOT":"-0.00000729","NORAD_CAT_ID":"46747","CENTER_NAME":"EARTH","CLASSIFICATION_TYPE":"U","SEMIMAJOR_AXIS":"6925.372","PERIOD":"95.593","EPHEMERIS_TYPE":"0","PERIAPSIS":"546.320","LAUNCH_DATE":"2020-10-24","TLE_LINE2":"2 46747  53.0534 141.9717 0001324  77.1838 282.9299 15.06392221121404","TIME_SYSTEM":"UTC","OBJECT_NAME":"STARLINK-1908","RA_OF_ASC_NODE":"141.9717","INCLINATION":"53.0534","TLE_LINE1":"1 46747U 20074J   23001.81367720 -.00000729  00000-0 -30036-4 0  9997","DECAY_DATE":null,"BSTAR":"-0.00003003600000","SITE":"AFETR","MEAN_MOTION_DDOT":"0.0000000000000","EPOCH":"2023-01-01T19:31:41.710080","REV_AT_EPOCH":"12140","ECCENTRICITY":"0.00013240","OBJECT_ID":"2020-074J","MEAN_ANOMALY":"282.9299","GP_ID":"221986421","OBJECT_TYPE":"PAYLOAD","COUNTRY_CODE":"US"},{"FILE":"3728952","APOAPSIS":"548.071","MEAN_MOTION":"15.06390309","ARG_OF_PERICENTER":"94.6786","REF_FRAME":"TEME","RCS_SIZE":"LARGE","NORAD_CAT_ID":"46748","CENTER_NAME":"EARTH","CLASSIFICATION_TYPE":"U","ELEMENT_SET_NO":"999","MEAN_MOTION_DOT":"-0.00002344","MEAN_ELEMENT_THEORY":"SGP4","PERIOD":"95.593","EPHEMERIS_TYPE":"0","PERIAPSIS":"546.416","SEMIMAJOR_AXIS":"6925.378","TLE_LINE2":"2 46748  53.0538 142.2321 0001195  94.6786 265.4339 15.06390309121390","LAUNCH_DATE":"2020-10-24","RA_OF_ASC_NODE":"142.2321","OBJECT_NAME":"STARLINK-1910","INCLINATION":"53.0538","TIME_SYSTEM":"UTC","EPOCH":"2023-01-01T18:06:46.284768","MEAN_MOTION_DDOT":"0.0000000000000","TLE_LINE1":"1 46748U 20074K   23001.75470237 -.00002344  00000-0 -13855-3 0  9993","SITE":"AFETR","DECAY_DATE":null,"BSTAR":"-0.00013855000000","OBJECT_TYPE":"PAYLOAD","GP_ID":"221986673","MEAN_ANOMALY":"265.4339","COUNTRY_CODE":"US","REV_AT_EPOCH":"12139","OBJECT_ID":"2020-074K","ECCENTRICITY":"0.00011950"}];
